STARLINK-2196_new
1 17773C 21017BD  21326.12014353  .00005402  00000-0  36200-3 0  3261
2 17773  53.0553  63.1976 0001299  78.6047 328.1529 15.06388724    11
STARLINK-2196_old
1 27773C 21017BD  21325.15418371 -.00021496  00000-0 -14403-2 0  3253
2 27773  53.0556  67.5336 0001290  78.0565 127.3575 15.06420582    11
